NORAD_CAT_ID,OBJECT_NAME,OBJECT_TYPE,EPOCH,MEAN_MOTION,ECCENTRICITY,INCLINATION,RA_OF_ASC_NODE,ARG_OF_PERICENTER,MEAN_ANOMALY,BSTAR,MEAN_MOTION_DOT,MEAN_MOTION_DDOT,TLE_LINE0,TLE_LINE1,TLE_LINE2,SEMIMAJOR_AXIS,PERIOD,APOGEE,PERIGEE,DECAYED
50189.0,STARLINK-3276,PAYLOAD,2022-01-02 08:00:01,15.81608051,0.000103,53.2176,292.4241,79.3245,63.7085,-0.0043965,-0.00818117,0.0,0 STARLINK-3276,1 50189U 21125AK  22002.33335648 -.00818117  00000-0 -43965-2 0  9992,2 50189  53.2176 292.4241 0001030  79.3245  63.7085 15.81608051  2834,6704.03,91.047,326.585,325.204,0.0
50189.0,STARLINK-3276,PAYLOAD,2022-01-04 21:39:29,15.78417312,0.0002743,53.2204,279.5976,248.95,111.123,-0.00056133,-0.00098624,0.0,0 STARLINK-3276,1 50189U 21125AK  22004.90242770 -.00098624  00000-0 -56133-3 0  9995,2 50189  53.2204 279.5976 0002743 248.9500 111.1230 15.78417312  6093,6713.061,91.231,336.76800000000014,333.085,0.0
50189.0,STARLINK-3276,PAYLOAD,2022-01-06 02:34:55,15.75530861,0.0001626999999999,53.2201,273.6117,151.7755,208.3355,-0.0025133,-0.00374132,0.0,0 STARLINK-3276,1 50189U 21125AK  22006.10758312 -.00374132  00000-0 -25133-2 0  9999,2 50189  53.2201 273.6117 0001627 151.7755 208.3355 15.75530861  5756,6721.2580000000025,91.398,344.217,342.029,0.0
50189.0,STARLINK-3276,PAYLOAD,2022-01-06 05:37:42,15.754109699999995,0.0001333,53.2199,272.9821,88.9766,271.1408,-0.0028218,-0.00415731,0.0,0 STARLINK-3276,1 50189U 21125AK  22006.23451395 -.00415731  00000-0 -28218-2 0  9992,2 50189  53.2199 272.9821 0001333  88.9766 271.1408 15.75410970  5770,6721.599,91.405,344.36,342.5680000000001,0.0
50189.0,STARLINK-3276,PAYLOAD,2022-01-06 14:46:02,15.75016602,0.0001726,53.2199,271.0928,86.6879,273.4339,-0.0020931,-0.00307142,0.0,0 STARLINK-3276,1 50189U 21125AK  22006.61530710 -.00307142  00000-0 -20931-2 0  9993,2 50189  53.2199 271.0928 0001726  86.6879 273.4339 15.75016602  5833,6722.721,91.428,345.746,343.426,0.0
50189.0,STARLINK-3276,PAYLOAD,2022-01-06 20:51:52,15.74452666,0.0001304,53.2198,269.835,119.7884,240.3267,-0.0024225,-0.00345194,0.0,0 STARLINK-3276,1 50189U 21125AK  22006.86935458 -.00345194  00000-0 -24225-2 0  9997,2 50189  53.2198 269.8350 0001304 119.7884 240.3267 15.74452666  6402,6724.326,91.46,347.0680000000001,345.314,0.0
50189.0,STARLINK-3276,PAYLOAD,2022-01-07 02:52:27,15.87374599,0.0027555,53.2205,268.4903,326.5911,33.3376,0.019876,0.04439996,0.024899,0 STARLINK-3276,1 50189U 21125AK  22007.11976122  .04439996  24899-1  19876-1 0  9993,2 50189  53.2205 268.4903 0027555 326.5911  33.3376 15.87374599  5913,6687.784000000002,90.716,328.077,291.221,0.0
50189.0,STARLINK-3276,PAYLOAD,2022-01-09 22:00:00,15.73227208,0.00013,53.2181,254.7573,83.8558,264.9753,-7.9709e-06,-1.74e-05,0.0,0 STARLINK-3276,1 50189U 21125AK  22009.91667824 -.00001740  00000-0 -79709-5 0  9991,2 50189  53.2181 254.7573 0001300  83.8558 264.9753 15.73227208  6356,6727.818,91.532,350.557,348.80800000000005,0.0
50189.0,STARLINK-3276,PAYLOAD,2022-01-10 14:00:01,15.73195046,0.0001166,53.2179,251.4566,94.7228,72.0154,-0.00030638,-0.00043387,0.0,0 STARLINK-3276,1 50189U 21125AK  22010.58334491 -.00043387  00000-0 -30638-3 0  9996,2 50189  53.2179 251.4566 0001166  94.7228  72.0154 15.73195046  6463,6727.909000000002,91.533,350.559,348.99,0.0
50189.0,STARLINK-3276,PAYLOAD,2022-01-10 22:00:00,15.73135403,0.000135,53.2182,249.8092,84.4027,171.239,2.8006e-05,3.302e-05,0.0,0 STARLINK-3276,1 50189U 21125AK  22010.91667824  .00003302  00000-0  28006-4 0  9990,2 50189  53.2182 249.8092 0001350  84.4027 171.2390 15.73135403  3732,6728.079000000002,91.537,350.853,349.036,0.0
50189.0,STARLINK-3276,PAYLOAD,2022-01-11 14:00:01,15.73153606,0.0001299,53.2183,246.5089,91.7375,341.6419,0.00043284,0.00060443,0.0,0 STARLINK-3276,1 50189U 21125AK  22011.58334491  .00060443  00000-0  43284-3 0  9998,2 50189  53.2183 246.5089 0001299  91.7375 341.6419 15.73153606  6623,6728.026999999999,91.536,350.766,349.01800000000014,0.0
50189.0,STARLINK-3276,PAYLOAD,2022-01-11 22:00:00,15.73194779,0.0001334,53.218,244.8615,81.5607,80.7205,6.279899999999999e-05,8.2e-05,0.0,0 STARLINK-3276,1 50189U 21125AK  22011.91667824  .00008200  00000-0  62799-4 0  9990,2 50189  53.2180 244.8615 0001334  81.5607  80.7205 15.73194779  3718,6727.91,91.533,350.673,348.87800000000016,0.0
50189.0,STARLINK-3276,PAYLOAD,2022-01-12 06:00:00,15.732243,0.0001271,53.2175,243.2118,82.55,168.6459,-7.8779e-05,-0.00011672,0.0,0 STARLINK-3276,1 50189U 21125AK  22012.25001157 -.00011672  00000-0 -78779-4 0  9993,2 50189  53.2175 243.2118 0001271  82.5500 168.6459 15.73224300  6721,6727.826,91.532,350.546,348.836,0.0
50189.0,STARLINK-3276,PAYLOAD,2022-01-12 14:00:01,15.73215232,0.0001225,53.2177,241.5608,93.8879,246.2631,0.00039927,0.00055824,0.0,0 STARLINK-3276,1 50189U 21125AK  22012.58334491  .00055824  00000-0  39927-3 0  9995,2 50189  53.2177 241.5608 0001225  93.8879 246.2631 15.73215232  3738,6727.852,91.532,350.541,348.89300000000014,0.0
50189.0,STARLINK-3276,PAYLOAD,2022-01-13 14:00:01,15.73209614,9.48e-05,53.2178,236.6127,91.4048,155.5902,0.00030714,0.00042722,0.0,0 STARLINK-3276,1 50189U 21125AK  22013.58334491  .00042722  00000-0  30714-3 0  9994,2 50189  53.2178 236.6127 0000948  91.4048 155.5902 15.73209614  6938,6727.868,91.533,350.371,349.095,0.0
50189.0,STARLINK-3276,PAYLOAD,2022-01-13 22:00:00,15.73238884,8.96e-05,53.2175,234.9653,75.1001,260.8633,-0.00055048,-0.00077294,0.0,0 STARLINK-3276,1 50189U 21125AK  22013.91667824 -.00077294  00000-0 -55048-3 0  9991,2 50189  53.2175 234.9653 0000896  75.1001 260.8633 15.73238884  3692,6727.784000000002,91.531,350.25199999999984,349.047,0.0
50189.0,STARLINK-3276,PAYLOAD,2022-01-14 06:00:00,15.73211326,0.0001192,53.2169,233.3123,82.5527,342.3922,3.9556e-05,4.937e-05,0.0,0 STARLINK-3276,1 50189U 21125AK  22014.25001157  .00004937  00000-0  39556-4 0  9999,2 50189  53.2169 233.3123 0001192  82.5527 342.3922 15.73211326  7047,6727.863,91.533,350.53,348.926,0.0
50189.0,STARLINK-3276,PAYLOAD,2022-01-14 14:00:01,15.73225038,0.000118,53.2171,231.6645,93.3629,60.5123,1.0181e-05,8.11e-06,0.0,0 STARLINK-3276,1 50189U 21125AK  22014.58334491  .00000811  00000-0  10181-4 0  9995,2 50189  53.2171 231.6645 0001180  93.3629  60.5123 15.73225038  3717,6727.824000000001,91.532,350.483,348.895,0.0
50189.0,STARLINK-3276,PAYLOAD,2022-01-14 22:00:00,15.73184862,0.0001125,53.2171,230.0173,76.9785,165.8682,-1.2076e-05,-2.313e-05,0.0,0 STARLINK-3276,1 50189U 21125AK  22014.91667824 -.00002313  00000-0 -12076-4 0  9997,2 50189  53.2171 230.0173 0001125  76.9785 165.8682 15.73184862  3768,6727.938,91.534,350.56,349.046,0.0
50189.0,STARLINK-3276,PAYLOAD,2022-01-15 14:00:01,15.73284468,0.0001272,53.2172,226.7105,81.4307,339.3291,-0.001614,-0.00222059,0.0,0 STARLINK-3276,1 50189U 21125AK  22015.58335648 -.00222059  00000-0 -16140-2 0  9992,2 50189  53.2172 226.7105 0001272  81.4307 339.3291 15.73284468  7255,6727.654,91.528,350.375,348.664,0.0
50189.0,STARLINK-3276,PAYLOAD,2022-01-15 22:00:01,15.73226295,0.0001082,53.2166,225.069,71.5818,78.1156,-0.00023094,-0.00032939,0.0,0 STARLINK-3276,1 50189U 21125AK  22015.91668981 -.00032939  00000-0 -23094-3 0  9991,2 50189  53.2166 225.0690 0001082  71.5818  78.1156 15.73226295  7303,6727.82,91.532,350.413,348.957,0.0
50189.0,STARLINK-3276,PAYLOAD,2022-01-16 14:00:01,15.73185074,9.59e-05,53.2163,221.768,85.7226,241.7947,0.00017506,0.00024003,0.0,0 STARLINK-3276,1 50189U 21125AK  22016.58334491  .00024003  00000-0  17506-3 0  9993,2 50189  53.2163 221.7680 0000959  85.7226 241.7947 15.73185074  3710,6727.938,91.534,350.4480000000001,349.158,0.0
50189.0,STARLINK-3276,PAYLOAD,2022-01-16 22:00:00,15.73172754,0.000109,53.2164,220.1208,70.4304,345.9879,0.00044296,0.00061933,0.0,0 STARLINK-3276,1 50189U 21125AK  22016.91667824  .00061933  00000-0  44296-3 0  9998,2 50189  53.2164 220.1208 0001090  70.4304 345.9879 15.73172754  3717,6727.973000000001,91.535,350.571,349.105,0.0
50189.0,STARLINK-3276,PAYLOAD,2022-01-17 00:00:00,15.73175185,0.0001067,53.2164,219.7086,67.3322,101.3159,0.00051443,0.00072121,0.0,0 STARLINK-3276,1 50189U 21125AK  22017.00001157  .00072121  00000-0  51443-3 0  9993,2 50189  53.2164 219.7086 0001067  67.3322 101.3159 15.73175185  7477,6727.965999999999,91.535,350.5490000000001,349.11300000000006,0.0
50189.0,STARLINK-3276,PAYLOAD,2022-01-17 06:00:00,15.73241473,0.0001076,53.2164,218.47,72.682,72.6349,-0.0010039,-0.00139443,0.0,0 STARLINK-3276,1 50189U 21125AK  22017.25001157 -.00139443  00000-0 -10039-2 0  9998,2 50189  53.2164 218.4700 0001076  72.6820  72.6349 15.73241473  7518,6727.776999999999,91.531,350.366,348.918,0.0
50189.0,STARLINK-3276,PAYLOAD,2022-01-17 14:00:01,15.73135247,0.0001082,53.2165,216.8199,80.1633,154.0703,2.702800000000001e-05,3.165e-05,0.0,0 STARLINK-3276,1 50189U 21125AK  22017.58334491  .00003165  00000-0  27028-4 0  9991,2 50189  53.2165 216.8199 0001082  80.1633 154.0703 15.73135247  3714,6728.08,91.537,350.673,349.217,0.0
50189.0,STARLINK-3276,PAYLOAD,2022-01-17 22:00:00,15.7311684,0.000115,53.2161,215.1726,65.0318,258.0522,0.00040641,0.00056598,0.0,0 STARLINK-3276,1 50189U 21125AK  22017.91667824  .00056598  00000-0  40641-3 0  9990,2 50189  53.2161 215.1726 0001150  65.0318 258.0522 15.73116840  7611,6728.132,91.538,350.771,349.224,0.0
50189.0,STARLINK-3276,PAYLOAD,2022-01-18 14:00:01,15.73191624,9.990000000000004e-05,53.216,211.8719,78.5609,62.2617,0.00026482,0.00036695,0.0,0 STARLINK-3276,1 50189U 21125AK  22018.58334491  .00036695  00000-0  26482-3 0  9998,2 50189  53.2160 211.8719 0000999  78.5609  62.2617 15.73191624  3706,6727.919,91.534,350.456,349.112,0.0
50189.0,STARLINK-3276,PAYLOAD,2022-01-18 22:00:00,15.73194119,0.0001085999999999,53.2163,210.2245,60.3253,169.4371,0.00052795,0.00074111,0.0,0 STARLINK-3276,1 50189U 21125AK  22018.91667824  .00074111  00000-0  52795-3 0  9995,2 50189  53.2163 210.2245 0001086  60.3253 169.4371 15.73194119  7778,6727.9119999999975,91.534,350.5080000000001,349.046,0.0
